STARLINK-37508          
1 69257U 26117V   26166.24982110  .00167189  00000+0  83245-3 0  9990
2 69257  53.1584 252.9055 0001320  40.2023 319.9097 15.80921194  2675
STARLINK-37276          
1 69258U 26117W   26166.25002315 -.00014793  00000+0 -71427-4 0  9996
2 69258  53.1581 252.5847 0001319  58.4313  96.2827 15.80903494  3859
STARLINK-37518          
1 69259U 26117X   26166.25002315 -.00008432  00000+0 -39200-4 0  9993
2 69259  53.1583 252.6002 0001262 119.7938  27.9291 15.80883871  3860
STARLINK-37478          
1 69260U 26117Y   26166.25002315 -.00009565  00000+0 -44923-4 0  9991
2 69260  53.1584 252.6029 0001018 106.1874  40.2465 15.80897498  3861
STARLINK-37506          
1 69261U 26117Z   26166.25002315 -.00011264  00000+0 -53573-4 0  9992
2 69261  53.1580 252.5965 0000932  96.3258  52.9005 15.80884251  3869
STARLINK-37503          
1 69262U 26117AA  26166.25002315  .00008766  00000+0  47868-4 0  9994
2 69262  53.1585 252.5932 0001146 104.8952  45.7881 15.80891155  3866
STARLINK-37502          
1 69263U 26117AB  26166.25002315 -.00030909  00000+0 -15331-3 0  9990
2 69263  53.1583 252.5866 0001120  73.1390  80.4659 15.80915995  3865
STARLINK-37486          
1 69264U 26117AC  26166.25002315 -.00030981  00000+0 -15381-3 0  9996
2 69264  53.1578 252.5722 0000969  97.7422  62.8189 15.80897959  3860
STARLINK-37435          
1 69265U 26117AD  26166.22333312  .00202149  00000+0  10013-2 0  9999
2 69265  53.1581 252.7230 0001044  62.1615 297.9513 15.80929050  2674
STARLINK-37464          
1 69266U 26117AE  26166.22026713  .00177148  00000+0  83648-3 0  9999
2 69266  53.1575 252.7017 0001317  46.2941 313.8191 15.82037212  2671
KUIPER-00282            
1 69267U 26118A   26166.20309786  .00009145  00000+0  27907-3 0  9990
2 69267  51.8587  63.1226 0011541 173.0691 187.0456 15.34602597  3674
KUIPER-00383            
1 69268U 26118B   26166.26528962  .00004752  00000+0  15076-3 0  9999
2 69268  51.8589  62.7895 0010803 175.7710 184.3369 15.34555680  3689
KUIPER-00527            
1 69269U 26118C   26166.19607970 -.00011049  00000+0 -30942-3 0  9997
2 69269  51.8618  63.0802 0009928 168.4335 191.6881 15.34983385  3679
KUIPER-00562            
1 69270U 26118D   26166.16775075  .00019625  00000+0  51600-3 0  9998
2 69270  51.8733  62.8946 0001788 100.1549 259.9640 15.38583325  3676
KUIPER-00570            
1 69271U 26118E   26166.19807564 -.00016214  00000+0 -46024-3 0  9998
2 69271  51.8577  63.0894 0012010 175.0516 185.0591 15.34913692  3677
KUIPER-00572            
1 69272U 26118F   26166.18490159  .00013119  00000+0  36706-3 0  9991
2 69272  51.8682  63.0118 0007187 163.6198 196.5022 15.36964646  3675
KUIPER-00581            
1 69273U 26118G   26166.18835565  .00013219  00000+0  37405-3 0  9994
2 69273  51.8661  63.0336 0008881 167.5786 192.5421 15.36594996  3769
KUIPER-00584            
1 69274U 26118H   26166.20019494 -.00075809  00000+0 -22201-2 0  9995
2 69274  51.8607  63.1060 0012332 182.7735 177.3184 15.34771140  3677
KUIPER-00587            
1 69275U 26118J   26166.18776887  .00013167  00000+0  37212-3 0  9995
2 69275  51.8635  63.0278 0008172 170.6882 189.4257 15.36641629  3670
KUIPER-00590            
1 69276U 26118K   26166.17555500  .00012960  00000+0  35251-3 0  9993
2 69276  51.8698  62.9517 0004144 151.2732 208.8484 15.37870192  3676
KUIPER-00592            
1 69277U 26118L   26166.17326743  .00010079  00000+0  27487-3 0  9990
2 69277  51.8721  62.9365 0003565 126.6154 233.5161 15.38063376  3671
KUIPER-00593            
1 69278U 26118M   26166.17392951  .00019326  00000+0  51775-3 0  9996
2 69278  51.8728  62.9389 0003825 146.8804 213.2423 15.38012067  3734
KUIPER-00594            
1 69279U 26118N   26166.23157899  .00012337  00000+0  32813-3 0  9991
2 69279  51.8728  62.5758 0001063  75.8609 284.2497 15.38616311  3682
KUIPER-00595            
1 69280U 26118P   26166.16868303  .00018788  00000+0  49552-3 0  9998
2 69280  51.8726  62.9055 0001680 124.2793 235.8353 15.38518311  3701
KUIPER-00596            
1 69281U 26118Q   26166.25002315  .00020497  00000+0  60833-3 0  9997
2 69281  51.8547  62.8449 0012365 176.6820 106.3317 15.34707692  2982
KUIPER-00597            
1 69282U 26118R   26166.18325555  .00019630  00000+0  54308-3 0  9991
2 69282  51.8661  63.0010 0006998 164.5226 195.5976 15.36988668  3672
KUIPER-00599            
1 69283U 26118S   26166.18081285  .00019619  00000+0  53655-3 0  9992
2 69283  51.8704  62.9856 0006170 156.6657 203.4610 15.37352663  3674
KUIPER-00600            
1 69284U 26118T   26166.18708942  .00012990  00000+0  36665-3 0  9996
2 69284  51.8648  63.0244 0008859 166.6276 193.4947 15.36689677  3677
KUIPER-00601            
1 69285U 26118U   26166.17771942  .00013201  00000+0  36183-3 0  9997
2 69285  51.8715  62.9652 0004656 146.5979 213.5302 15.37613228  3671
KUIPER-00602            
1 69286U 26118V   26166.17252073  .00019325  00000+0  51554-3 0  9999
2 69286  51.8717  62.9319 0002888 138.1873 221.9335 15.38145403  3674
