OBJECT_NAME,OBJECT_ID,EPOCH,MEAN_MOTION,ECCENTRICITY,INCLINATION,RA_OF_ASC_NODE,ARG_OF_PERICENTER,MEAN_ANOMALY,EPHEMERIS_TYPE,CLASSIFICATION_TYPE,NORAD_CAT_ID,ELEMENT_SET_NO,REV_AT_EPOCH,BSTAR,MEAN_MOTION_DOT,MEAN_MOTION_DDOT
STARLINK-37508,2026-117V,2026-06-15T05:59:44.543040,15.80921194,.00013206,53.1584,252.9055,40.2023,319.9097,0,U,69257,999,267,.83244611E-3,.167189E-2,0
STARLINK-37276,2026-117W,2026-06-15T06:00:02.000160,15.80903494,.00013193,53.1581,252.5847,58.4313,96.2827,0,U,69258,999,385,-.71427417E-4,-.14793E-3,0
STARLINK-37518,2026-117X,2026-06-15T06:00:02.000160,15.80883871,.00012623,53.1583,252.6002,119.7938,27.9291,0,U,69259,999,386,-.39200213E-4,-.8432E-4,0
STARLINK-37478,2026-117Y,2026-06-15T06:00:02.000160,15.80897498,.0001018,53.1584,252.6029,106.1874,40.2465,0,U,69260,999,386,-.44922766E-4,-.9565E-4,0
STARLINK-37506,2026-117Z,2026-06-15T06:00:02.000160,15.80884251,.00009325,53.1580,252.5965,96.3258,52.9005,0,U,69261,999,386,-.53573313E-4,-.11264E-3,0
STARLINK-37503,2026-117AA,2026-06-15T06:00:02.000160,15.80891155,.00011469,53.1585,252.5932,104.8952,45.7881,0,U,69262,999,386,.47867615E-4,.8766E-4,0
STARLINK-37502,2026-117AB,2026-06-15T06:00:02.000160,15.80915995,.00011204,53.1583,252.5866,73.1390,80.4659,0,U,69263,999,386,-.15330747E-3,-.30909E-3,0
STARLINK-37486,2026-117AC,2026-06-15T06:00:02.000160,15.80897959,.00009697,53.1578,252.5722,97.7422,62.8189,0,U,69264,999,386,-.15380856E-3,-.30981E-3,0
STARLINK-37435,2026-117AD,2026-06-15T05:21:35.981568,15.80929050,.00010443,53.1581,252.7230,62.1615,297.9513,0,U,69265,999,267,.1001338E-2,.202149E-2,0
STARLINK-37464,2026-117AE,2026-06-15T05:17:11.080032,15.82037212,.00013172,53.1575,252.7017,46.2941,313.8191,0,U,69266,999,267,.83648489E-3,.177148E-2,0
KUIPER-00282,2026-118A,2026-06-15T04:52:27.655104,15.34602597,.00115413,51.8587,63.1226,173.0691,187.0456,0,U,69267,999,367,.27907271E-3,.9145E-4,0
KUIPER-00383,2026-118B,2026-06-15T06:22:01.023168,15.34555680,.00108037,51.8589,62.7895,175.7710,184.3369,0,U,69268,999,368,.15075969E-3,.4752E-4,0
KUIPER-00527,2026-118C,2026-06-15T04:42:21.286080,15.34983385,.00099289,51.8618,63.0802,168.4335,191.6881,0,U,69269,999,367,-.30941683E-3,-.11049E-3,0
KUIPER-00562,2026-118D,2026-06-15T04:01:33.664800,15.38583325,.00017885,51.8733,62.8946,100.1549,259.9640,0,U,69270,999,367,.51599957E-3,.19625E-3,0
KUIPER-00570,2026-118E,2026-06-15T04:45:13.735296,15.34913692,.00120105,51.8577,63.0894,175.0516,185.0591,0,U,69271,999,367,-.46024491E-3,-.16214E-3,0
KUIPER-00572,2026-118F,2026-06-15T04:26:15.497376,15.36964646,.00071872,51.8682,63.0118,163.6198,196.5022,0,U,69272,999,367,.3670608E-3,.13119E-3,0
KUIPER-00581,2026-118G,2026-06-15T04:31:13.928160,15.36594996,.00088817,51.8661,63.0336,167.5786,192.5421,0,U,69273,999,376,.37404831E-3,.13219E-3,0
KUIPER-00584,2026-118H,2026-06-15T04:48:16.842816,15.34771140,.00123326,51.8607,63.1060,182.7735,177.3184,0,U,69274,999,367,-.22201442E-2,-.75809E-3,0
KUIPER-00587,2026-118J,2026-06-15T04:30:23.230368,15.36641629,.00081729,51.8635,63.0278,170.6882,189.4257,0,U,69275,999,367,.37212161E-3,.13167E-3,0
KUIPER-00590,2026-118K,2026-06-15T04:12:47.952000,15.37870192,.00041443,51.8698,62.9517,151.2732,208.8484,0,U,69276,999,367,.35250749E-3,.1296E-3,0
KUIPER-00592,2026-118L,2026-06-15T04:09:30.305952,15.38063376,.00035655,51.8721,62.9365,126.6154,233.5161,0,U,69277,999,367,.27487281E-3,.10079E-3,0
KUIPER-00593,2026-118M,2026-06-15T04:10:27.509664,15.38012067,.0003825,51.8728,62.9389,146.8804,213.2423,0,U,69278,999,373,.51775468E-3,.19326E-3,0
KUIPER-00594,2026-118N,2026-06-15T05:33:28.424736,15.38616311,.00010635,51.8728,62.5758,75.8609,284.2497,0,U,69279,999,368,.32812802E-3,.12337E-3,0
KUIPER-00595,2026-118P,2026-06-15T04:02:54.213792,15.38518311,.00016806,51.8726,62.9055,124.2793,235.8353,0,U,69280,999,370,.4955247E-3,.18788E-3,0
KUIPER-00596,2026-118Q,2026-06-15T06:00:02.000160,15.34707692,.00123654,51.8547,62.8449,176.6820,106.3317,0,U,69281,999,298,.6083328E-3,.20497E-3,0
KUIPER-00597,2026-118R,2026-06-15T04:23:53.279520,15.36988668,.00069982,51.8661,63.0010,164.5226,195.5976,0,U,69282,999,367,.54307582E-3,.1963E-3,0
KUIPER-00599,2026-118S,2026-06-15T04:20:22.230240,15.37352663,.00061708,51.8704,62.9856,156.6657,203.4610,0,U,69283,999,367,.53654677E-3,.19619E-3,0
KUIPER-00600,2026-118T,2026-06-15T04:29:24.525888,15.36689677,.00088593,51.8648,63.0244,166.6276,193.4947,0,U,69284,999,367,.36665121E-3,.1299E-3,0
KUIPER-00601,2026-118U,2026-06-15T04:15:54.957888,15.37613228,.00046565,51.8715,62.9652,146.5979,213.5302,0,U,69285,999,367,.36182633E-3,.13201E-3,0
KUIPER-00602,2026-118V,2026-06-15T04:08:25.791072,15.38145403,.00028885,51.8717,62.9319,138.1873,221.9335,0,U,69286,999,367,.51553573E-3,.19325E-3,0
